[{"OBJECT_NAME":"STARLINK-2581","OBJECT_ID":"2021-038BM","EPOCH":"2026-03-09T20:21:32.588640","MEAN_MOTION":15.06396675,"ECCENTRICITY":0.00014731,"INCLINATION":53.054,"RA_OF_ASC_NODE":291.3408,"ARG_OF_PERICENTER":74.8336,"MEAN_ANOMALY":285.2816,"EPHEMERIS_TYPE":0,"CLASSIFICATION_TYPE":"U","NORAD_CAT_ID":48412,"ELEMENT_SET_NO":999,"REV_AT_EPOCH":26803,"BSTAR":5.2922796e-5,"MEAN_MOTION_DOT":5.07e-6,"MEAN_MOTION_DDOT":0},{"OBJECT_NAME":"COSMOS 397 DEB","OBJECT_ID":"1971-015AK","EPOCH":"2026-03-09T22:58:31.009440","MEAN_MOTION":13.69427816,"ECCENTRICITY":0.06260381,"INCLINATION":65.6843,"RA_OF_ASC_NODE":28.4631,"ARG_OF_PERICENTER":58.8288,"MEAN_ANOMALY":307.261,"EPHEMERIS_TYPE":0,"CLASSIFICATION_TYPE":"U","NORAD_CAT_ID":5156,"ELEMENT_SET_NO":999,"REV_AT_EPOCH":65184,"BSTAR":0.001612721,"MEAN_MOTION_DOT":5.69e-5,"MEAN_MOTION_DDOT":0}]
